CCSDS_OMM_VERS = 2.0
CREATION_DATE  = 
ORIGINATOR     = 

OBJECT_NAME    = ATLAS CENTAUR 2
OBJECT_ID      = 1963-047A
CENTER_NAME    = EARTH
REF_FRAME      = TEME
TIME_SYSTEM    = UTC
MEAN_ELEMENT_THEORY = SGP/SGP4

EPOCH          = 2025-11-15T11:57:17.408160
MEAN_MOTION    = 14.11512366
ECCENTRICITY   = .0549659
INCLINATION    = 30.3513
RA_OF_ASC_NODE = 113.5894
ARG_OF_PERICENTER = 154.2531
MEAN_ANOMALY   = 208.6530

EPHEMERIS_TYPE = 0
CLASSIFICATION_TYPE = U
NORAD_CAT_ID   = 694
ELEMENT_SET_NO = 999
REV_AT_EPOCH   = 11547
BSTAR          = .67892E-3
MEAN_MOTION_DOT = .5602E-4
MEAN_MOTION_DDOT = 0

CCSDS_OMM_VERS = 2.0
CREATION_DATE  = 
ORIGINATOR     = 

OBJECT_NAME    = THOR AGENA D R/B
OBJECT_ID      = 1964-002A
CENTER_NAME    = EARTH
REF_FRAME      = TEME
TIME_SYSTEM    = UTC
MEAN_ELEMENT_THEORY = SGP/SGP4

EPOCH          = 2025-11-15T12:13:24.280320
MEAN_MOTION    = 14.33936804
ECCENTRICITY   = .0032138
INCLINATION    = 99.1221
RA_OF_ASC_NODE = 321.6548
ARG_OF_PERICENTER = 229.8707
MEAN_ANOMALY   = 129.9659

EPHEMERIS_TYPE = 0
CLASSIFICATION_TYPE = U
NORAD_CAT_ID   = 733
ELEMENT_SET_NO = 999
REV_AT_EPOCH   = 22193
BSTAR          = .17965E-3
MEAN_MOTION_DOT = .455E-5
MEAN_MOTION_DDOT = 0

CCSDS_OMM_VERS = 2.0
CREATION_DATE  = 
ORIGINATOR     = 

OBJECT_NAME    = SL-3 R/B
OBJECT_ID      = 1964-053B
CENTER_NAME    = EARTH
REF_FRAME      = TEME
TIME_SYSTEM    = UTC
MEAN_ELEMENT_THEORY = SGP/SGP4

EPOCH          = 2025-11-15T06:21:41.567616
MEAN_MOTION    = 14.61232579
ECCENTRICITY   = .0071311
INCLINATION    = 65.0769
RA_OF_ASC_NODE = 306.6662
ARG_OF_PERICENTER = 329.6131
MEAN_ANOMALY   = 30.0844

EPHEMERIS_TYPE = 0
CLASSIFICATION_TYPE = U
NORAD_CAT_ID   = 877
ELEMENT_SET_NO = 999
REV_AT_EPOCH   = 25007
BSTAR          = .20546E-3
MEAN_MOTION_DOT = .928E-5
MEAN_MOTION_DDOT = 0

CCSDS_OMM_VERS = 2.0
CREATION_DATE  = 
ORIGINATOR     = 

OBJECT_NAME    = SL-8 R/B
OBJECT_ID      = 1967-045B
CENTER_NAME    = EARTH
REF_FRAME      = TEME
TIME_SYSTEM    = UTC
MEAN_ELEMENT_THEORY = SGP/SGP4

EPOCH          = 2025-11-15T09:16:38.606880
MEAN_MOTION    = 14.45507356
ECCENTRICITY   = .0065397
INCLINATION    = 74.0106
RA_OF_ASC_NODE = 201.5367
ARG_OF_PERICENTER = 236.9384
MEAN_ANOMALY   = 122.5483

EPHEMERIS_TYPE = 0
CLASSIFICATION_TYPE = U
NORAD_CAT_ID   = 2802
ELEMENT_SET_NO = 999
REV_AT_EPOCH   = 7250
BSTAR          = .19506E-3
MEAN_MOTION_DOT = .677E-5
MEAN_MOTION_DDOT = 0

CCSDS_OMM_VERS = 2.0
CREATION_DATE  = 
ORIGINATOR     = 

OBJECT_NAME    = SL-8 R/B
OBJECT_ID      = 1968-040B
CENTER_NAME    = EARTH
REF_FRAME      = TEME
TIME_SYSTEM    = UTC
MEAN_ELEMENT_THEORY = SGP/SGP4

EPOCH          = 2025-11-15T08:08:04.009920
MEAN_MOTION    = 15.02280893
ECCENTRICITY   = .0023816
INCLINATION    = 74.0317
RA_OF_ASC_NODE = 187.1712
ARG_OF_PERICENTER = 36.3517
MEAN_ANOMALY   = 323.9283

EPHEMERIS_TYPE = 0
CLASSIFICATION_TYPE = U
NORAD_CAT_ID   = 3230
ELEMENT_SET_NO = 999
REV_AT_EPOCH   = 7283
BSTAR          = .26627E-3
MEAN_MOTION_DOT = .3496E-4
MEAN_MOTION_DDOT = 0

CCSDS_OMM_VERS = 2.0
CREATION_DATE  = 
ORIGINATOR     = 

OBJECT_NAME    = OAO 2
OBJECT_ID      = 1968-110A
CENTER_NAME    = EARTH
REF_FRAME      = TEME
TIME_SYSTEM    = UTC
MEAN_ELEMENT_THEORY = SGP/SGP4

EPOCH          = 2025-11-14T08:43:25.458240
MEAN_MOTION    = 14.47218642
ECCENTRICITY   = .0005671
INCLINATION    = 34.9918
RA_OF_ASC_NODE = 189.0737
ARG_OF_PERICENTER = 344.8903
MEAN_ANOMALY   = 15.1617

EPHEMERIS_TYPE = 0
CLASSIFICATION_TYPE = U
NORAD_CAT_ID   = 3597
ELEMENT_SET_NO = 999
REV_AT_EPOCH   = 238
BSTAR          = .16322E-3
MEAN_MOTION_DOT = .586E-5
MEAN_MOTION_DDOT = 0

CCSDS_OMM_VERS = 2.0
CREATION_DATE  = 
ORIGINATOR     = 

OBJECT_NAME    = ISIS 1
OBJECT_ID      = 1969-009A
CENTER_NAME    = EARTH
REF_FRAME      = TEME
TIME_SYSTEM    = UTC
MEAN_ELEMENT_THEORY = SGP/SGP4

EPOCH          = 2025-11-14T19:50:03.609024
MEAN_MOTION    = 11.30339026
ECCENTRICITY   = .1707354
INCLINATION    = 88.4509
RA_OF_ASC_NODE = 167.8485
ARG_OF_PERICENTER = 321.1087
MEAN_ANOMALY   = 27.8398

EPHEMERIS_TYPE = 0
CLASSIFICATION_TYPE = U
NORAD_CAT_ID   = 3669
ELEMENT_SET_NO = 999
REV_AT_EPOCH   = 33555
BSTAR          = .22567E-3
MEAN_MOTION_DOT = .314E-5
MEAN_MOTION_DDOT = 0

CCSDS_OMM_VERS = 2.0
CREATION_DATE  = 
ORIGINATOR     = 

OBJECT_NAME    = SERT 2
OBJECT_ID      = 1970-009A
CENTER_NAME    = EARTH
REF_FRAME      = TEME
TIME_SYSTEM    = UTC
MEAN_ELEMENT_THEORY = SGP/SGP4

EPOCH          = 2025-11-15T11:56:12.958080
MEAN_MOTION    = 13.58712589
ECCENTRICITY   = .000569
INCLINATION    = 99.2604
RA_OF_ASC_NODE = 263.9236
ARG_OF_PERICENTER = 94.4022
MEAN_ANOMALY   = 15.0441

EPHEMERIS_TYPE = 0
CLASSIFICATION_TYPE = U
NORAD_CAT_ID   = 4327
ELEMENT_SET_NO = 999
REV_AT_EPOCH   = 76438
BSTAR          = .13861E-3
MEAN_MOTION_DOT = .6E-6
MEAN_MOTION_DDOT = 0

CCSDS_OMM_VERS = 2.0
CREATION_DATE  = 
ORIGINATOR     = 

OBJECT_NAME    = SL-3 R/B
OBJECT_ID      = 1971-028B
CENTER_NAME    = EARTH
REF_FRAME      = TEME
TIME_SYSTEM    = UTC
MEAN_ELEMENT_THEORY = SGP/SGP4

EPOCH          = 2025-11-15T10:17:46.929696
MEAN_MOTION    = 15.52612249
ECCENTRICITY   = .0021059
INCLINATION    = 81.2403
RA_OF_ASC_NODE = 192.1804
ARG_OF_PERICENTER = 340.7342
MEAN_ANOMALY   = 19.3108

EPHEMERIS_TYPE = 0
CLASSIFICATION_TYPE = U
NORAD_CAT_ID   = 5118
ELEMENT_SET_NO = 999
REV_AT_EPOCH   = 97089
BSTAR          = .49777E-3
MEAN_MOTION_DOT = .30995E-3
MEAN_MOTION_DDOT = 0

CCSDS_OMM_VERS = 2.0
CREATION_DATE  = 
ORIGINATOR     = 

OBJECT_NAME    = ASTEX 1
OBJECT_ID      = 1971-089A
CENTER_NAME    = EARTH
REF_FRAME      = TEME
TIME_SYSTEM    = UTC
MEAN_ELEMENT_THEORY = SGP/SGP4

EPOCH          = 2025-11-15T10:58:55.549632
MEAN_MOTION    = 14.50594119
ECCENTRICITY   = .0017775
INCLINATION    = 92.7123
RA_OF_ASC_NODE = 114.7958
ARG_OF_PERICENTER = 108.0826
MEAN_ANOMALY   = 252.2318

EPHEMERIS_TYPE = 0
CLASSIFICATION_TYPE = U
NORAD_CAT_ID   = 5560
ELEMENT_SET_NO = 999
REV_AT_EPOCH   = 84574
BSTAR          = .34335E-3
MEAN_MOTION_DOT = .1347E-4
MEAN_MOTION_DDOT = 0

CCSDS_OMM_VERS = 2.0
CREATION_DATE  = 
ORIGINATOR     = 

OBJECT_NAME    = SL-8 R/B
OBJECT_ID      = 1971-119B
CENTER_NAME    = EARTH
REF_FRAME      = TEME
TIME_SYSTEM    = UTC
MEAN_ELEMENT_THEORY = SGP/SGP4

EPOCH          = 2025-11-15T12:08:27.357216
MEAN_MOTION    = 14.35053374
ECCENTRICITY   = .0560886
INCLINATION    = 73.8899
RA_OF_ASC_NODE = 28.7097
ARG_OF_PERICENTER = 18.5128
MEAN_ANOMALY   = 343.5550

EPHEMERIS_TYPE = 0
CLASSIFICATION_TYPE = U
NORAD_CAT_ID   = 5730
ELEMENT_SET_NO = 999
REV_AT_EPOCH   = 63909
BSTAR          = .45468E-3
MEAN_MOTION_DOT = .8584E-4
MEAN_MOTION_DDOT = 0

CCSDS_OMM_VERS = 2.0
CREATION_DATE  = 
ORIGINATOR     = 

OBJECT_NAME    = OAO 3 (COPERNICUS)
OBJECT_ID      = 1972-065A
CENTER_NAME    = EARTH
REF_FRAME      = TEME
TIME_SYSTEM    = UTC
MEAN_ELEMENT_THEORY = SGP/SGP4

EPOCH          = 2025-11-15T11:27:01.567872
MEAN_MOTION    = 14.59872970
ECCENTRICITY   = .0007228
INCLINATION    = 35.0052
RA_OF_ASC_NODE = 227.9680
ARG_OF_PERICENTER = 302.3013
MEAN_ANOMALY   = 224.1210

EPHEMERIS_TYPE = 0
CLASSIFICATION_TYPE = U
NORAD_CAT_ID   = 6153
ELEMENT_SET_NO = 999
REV_AT_EPOCH   = 82949
BSTAR          = .17818E-3
MEAN_MOTION_DOT = .845E-5
MEAN_MOTION_DDOT = 0

