ATLAS CENTAUR 2         
1 00694U 63047A   25319.49811815  .00005602  00000+0  67892-3 0  9993
2 00694  30.3513 113.5894 0549659 154.2531 208.6530 14.11512366115478
THOR AGENA D R/B        
1 00733U 64002A   25319.50930880  .00000455  00000+0  17965-3 0  9992
2 00733  99.1221 321.6548 0032138 229.8707 129.9659 14.33936804221939
SL-3 R/B                
1 00877U 64053B   25319.26506444  .00000928  00000+0  20546-3 0  9999
2 00877  65.0769 306.6662 0071311 329.6131  30.0844 14.61232579250077
SL-8 R/B                
1 02802U 67045B   25319.38655795  .00000677  00000+0  19506-3 0  9995
2 02802  74.0106 201.5367 0065397 236.9384 122.5483 14.45507356 72500
SL-8 R/B                
1 03230U 68040B   25319.33893530  .00003496  00000+0  26627-3 0  9997
2 03230  74.0317 187.1712 0023816  36.3517 323.9283 15.02280893 72832
OAO 2                   
1 03597U 68110A   25318.36348910  .00000586  00000+0  16322-3 0  9998
2 03597  34.9918 189.0737 0005671 344.8903  15.1617 14.47218642  2388
ISIS 1                  
1 03669U 69009A   25318.82643066  .00000314  00000+0  22567-3 0  9994
2 03669  88.4509 167.8485 1707354 321.1087  27.8398 11.30339026335554
SERT 2                  
1 04327U 70009A   25319.49737220  .00000060  00000+0  13861-3 0  9993
2 04327  99.2604 263.9236 0005690  94.4022  15.0441 13.58712589764382
SL-3 R/B                
1 05118U 71028B   25319.42901539  .00030995  00000+0  49777-3 0  9998
2 05118  81.2403 192.1804 0021059 340.7342  19.3108 15.52612249970892
ASTEX 1                 
1 05560U 71089A   25319.45758738  .00001347  00000+0  34335-3 0  9993
2 05560  92.7123 114.7958 0017775 108.0826 252.2318 14.50594119845749
SL-8 R/B                
1 05730U 71119B   25319.50587219  .00008584  00000+0  45468-3 0  9995
2 05730  73.8899  28.7097 0560886  18.5128 343.5550 14.35053374639099
OAO 3 (COPERNICUS)      
1 06153U 72065A   25319.47710148  .00000845  00000+0  17818-3 0  9991
2 06153  35.0052 227.9680 0007228 302.3013 224.1210 14.59872970829493
